NORAD_CAT_ID,OBJECT_NAME,OBJECT_TYPE,EPOCH,MEAN_MOTION,ECCENTRICITY,INCLINATION,RA_OF_ASC_NODE,ARG_OF_PERICENTER,MEAN_ANOMALY,BSTAR,MEAN_MOTION_DOT,MEAN_MOTION_DDOT,TLE_LINE0,TLE_LINE1,TLE_LINE2,SEMIMAJOR_AXIS,PERIOD,APOGEE,PERIGEE,DECAYED
54173.0,STARLINK-5242,PAYLOAD,2022-12-05 14:00:01,15.72047011,0.0004779,53.2167,313.1826,286.019,315.4138,-0.010315,-0.01241791,0.0,0 STARLINK-5242,1 54173U 22141S   22339.58335648 -.01241791  00000-0 -10315-1 0  9999,2 54173  53.2167 313.1826 0004779 286.0190 315.4138 15.72047011  1300,6731.184,91.6,356.266,349.833,0.0
54173.0,STARLINK-5242,PAYLOAD,2022-12-05 22:00:01,15.71161224,0.0006801,53.2176,311.5337,272.0686,56.3581,-0.0097255,-0.01121253,0.0,0 STARLINK-5242,1 54173U 22141S   22339.91668981 -.01121253  00000-0 -97255-2 0  9994,2 54173  53.2176 311.5337 0006801 272.0686  56.3581 15.71161224  6155,6733.714,91.652,360.159,351.0,0.0
54173.0,STARLINK-5242,PAYLOAD,2022-12-06 14:00:01,15.69548949,0.0004545,53.2168,308.2511,270.9614,228.4429,-0.010692,-0.01146755,0.0,0 STARLINK-5242,1 54173U 22141S   22340.58335648 -.01146755  00000-0 -10692-1 0  9993,2 54173  53.2168 308.2511 0004545 270.9614 228.4429 15.69548949  6258,6738.325,91.746,363.252,357.12699999999984,0.0
54173.0,STARLINK-5242,PAYLOAD,2022-12-06 22:00:00,15.68760377,0.0002483,53.2167,306.6106,283.634,299.7145,-0.011311,-0.01189637,0.0,0 STARLINK-5242,1 54173U 22141S   22340.91667824 -.01189637  00000-0 -11311-1 0  9999,2 54173  53.2167 306.6106 0002483 283.6340 299.7145 15.68760377  1302,6740.583000000001,91.792,364.121,360.774,0.0
54173.0,STARLINK-5242,PAYLOAD,2022-12-07 22:00:00,15.66278666,0.0001249,53.2176,301.7022,62.1086,47.4702,-0.011901,-0.01135412,0.0,0 STARLINK-5242,1 54173U 22141S   22341.91667824 -.01135412  00000-0 -11901-1 0  9997,2 54173  53.2176 301.7022 0001249  62.1086  47.4702 15.66278666  6463,6747.701,91.938,370.409,368.723,0.0
54173.0,STARLINK-5242,PAYLOAD,2022-12-08 14:00:01,15.64657997,0.0001131,53.2173,298.442,73.6963,195.1313,-0.012766,-0.01140331,0.0,0 STARLINK-5242,1 54173U 22141S   22342.58334491 -.01140331  00000-0 -12766-1 0  9998,2 54173  53.2173 298.4420 0001131  73.6963 195.1313 15.64657997  1308,6752.36,92.033,374.98800000000006,373.461,0.0
54173.0,STARLINK-5242,PAYLOAD,2022-12-08 22:00:01,15.63842355,0.0001055,53.2176,296.8131,72.5986,274.458,-0.01313,-0.01135727,0.0,0 STARLINK-5242,1 54173U 22141S   22342.91668981 -.01135727  00000-0 -13130-1 0  9998,2 54173  53.2176 296.8131 0001055  72.5986 274.4580 15.63842355  6620,6754.706999999999,92.081,377.285,375.86,0.0
54173.0,STARLINK-5242,PAYLOAD,2022-12-09 14:00:01,15.62215277,0.0001179,53.2172,293.5645,81.1144,59.2693,-0.014011,-0.01136453,0.0,0 STARLINK-5242,1 54173U 22141S   22343.58334491 -.01136453  00000-0 -14011-1 0  9994,2 54173  53.2172 293.5645 0001179  81.1144  59.2693 15.62215277  1309,6759.396,92.177,382.0580000000001,380.465,0.0
54173.0,STARLINK-5242,PAYLOAD,2022-12-10 14:00:01,15.597736800000002,0.0001026,53.2176,288.7045,70.2109,292.9281,-0.015387,-0.01135193,0.0,0 STARLINK-5242,1 54173U 22141S   22344.58334491 -.01135193  00000-0 -15387-1 0  9992,2 54173  53.2176 288.7045 0001026  70.2109 292.9281 15.59773680  6884,6766.449000000001,92.321,389.008,387.619,0.0
54173.0,STARLINK-5242,PAYLOAD,2022-12-10 22:00:00,15.58959216,0.0001142,53.2178,287.0884,70.1708,5.2645,-0.015846,-0.01133348,0.0,0 STARLINK-5242,1 54173U 22141S   22344.91667824 -.01133348  00000-0 -15846-1 0  9998,2 54173  53.2178 287.0884 0001142  70.1708   5.2645 15.58959216  1303,6768.805,92.369,391.443,389.897,0.0
54173.0,STARLINK-5242,PAYLOAD,2022-12-11 14:00:01,15.5733241,0.000123,53.2176,283.8625,80.0689,137.0244,-0.016865,-0.01133945,0.0,0 STARLINK-5242,1 54173U 22141S   22345.58334491 -.01133945  00000-0 -16865-1 0  9998,2 54173  53.2176 283.8625 0001230  80.0689 137.0244 15.57332410  7039,6773.518,92.466,396.216,394.55,0.0
54173.0,STARLINK-5242,PAYLOAD,2022-12-11 22:00:01,15.56517998,0.0001147,53.2177,282.2526,89.294,197.2266,-0.017363,-0.01132355,0.0,0 STARLINK-5242,1 54173U 22141S   22345.91668981 -.01132355  00000-0 -17363-1 0  9997,2 54173  53.2177 282.2526 0001147  89.2940 197.2266 15.56517998  1302,6775.880999999999,92.514,398.523,396.968,0.0
54173.0,STARLINK-5242,PAYLOAD,2022-12-12 14:00:01,15.54889003,0.0001099,53.2175,279.0385,67.0946,355.1532,-0.018406,-0.01129944,0.0,0 STARLINK-5242,1 54173U 22141S   22346.58334491 -.01129944  00000-0 -18406-1 0  9996,2 54173  53.2175 279.0385 0001099  67.0946 355.1532 15.54889003  7194,6780.611999999999,92.611,403.222,401.732,0.0
54173.0,STARLINK-5242,PAYLOAD,2022-12-12 22:00:00,15.54094258,0.0001233,53.2168,277.4352,83.1594,45.5074,-0.019423,-0.01155214,0.0,0 STARLINK-5242,1 54173U 22141S   22346.91667824 -.01155214  00000-0 -19423-1 0  9991,2 54173  53.2168 277.4352 0001233  83.1594  45.5074 15.54094258  1308,6782.924,92.658,405.625,403.952,0.0
54173.0,STARLINK-5242,PAYLOAD,2022-12-13 04:00:00,15.53466589,0.0001186,53.2175,276.2342,74.3949,13.4598,-0.019433,-0.01131945,0.0,0 STARLINK-5242,1 54173U 22141S   22347.16667824 -.01131945  00000-0 -19433-1 0  9995,2 54173  53.2175 276.2342 0001186  74.3949  13.4598 15.53466589  7282,6784.751,92.696,407.42,405.811,0.0
54173.0,STARLINK-5242,PAYLOAD,2022-12-13 14:00:01,15.52447996,0.0001186,53.2176,274.2319,79.0384,179.5621,-0.020117,-0.01129329,0.0,0 STARLINK-5242,1 54173U 22141S   22347.58334491 -.01129329  00000-0 -20117-1 0  9996,2 54173  53.2176 274.2319 0001186  79.0384 179.5621 15.52447996  1308,6787.718000000003,92.757,410.388,408.778,0.0
54173.0,STARLINK-5242,PAYLOAD,2022-12-13 22:00:00,15.51635435,0.0001088,53.2177,272.6341,86.8585,235.2364,-0.020752,-0.01130977,0.0,0 STARLINK-5242,1 54173U 22141S   22347.91667824 -.01130977  00000-0 -20752-1 0  9998,2 54173  53.2177 272.6341 0001088  86.8585 235.2364 15.51635435  7403,6790.0880000000025,92.805,412.691,411.214,0.0
54173.0,STARLINK-5242,PAYLOAD,2022-12-14 14:00:01,15.49992837,0.000106,53.2174,269.4435,71.0549,15.1337,-0.0029043,-0.00162527,0.0,0 STARLINK-5242,1 54173U 22141S   22348.58334491 -.00162527  00000-0 -29043-2 0  9991,2 54173  53.2174 269.4435 0001060  71.0549  15.1337 15.49992837  7509,6794.884,92.904,417.469,416.029,0.0
54173.0,STARLINK-5242,PAYLOAD,2022-12-14 22:00:00,15.49955364,0.0001212,53.2139,267.8571,88.4456,58.7349,-0.001222,-0.00069367,0.0,0 STARLINK-5242,1 54173U 22141S   22348.91667824 -.00069367  00000-0 -12220-2 0  9994,2 54173  53.2139 267.8571 0001212  88.4456  58.7349 15.49955364  7556,6794.994000000002,92.906,417.682,416.035,0.0
54173.0,STARLINK-5242,PAYLOAD,2022-12-15 14:00:01,15.49893476,0.0001063,53.2134,264.6699,93.8672,175.2423,-0.00026657,-0.00015555,0.0,0 STARLINK-5242,1 54173U 22141S   22349.58334491 -.00015555  00000-0 -26657-3 0  9999,2 54173  53.2134 264.6699 0001063  93.8672 175.2423 15.49893476  7655,6795.174,92.91,417.762,416.317,0.0
54173.0,STARLINK-5242,PAYLOAD,2022-12-15 22:00:00,15.4990098,0.0001031,53.2138,263.0775,91.1079,238.9133,-0.00012116,-7.325e-05,0.0,0 STARLINK-5242,1 54173U 22141S   22349.91667824 -.00007325  00000-0 -12116-3 0  9996,2 54173  53.2138 263.0775 0001031  91.1079 238.9133 15.49900980  1304,6795.151999999999,92.909,417.718,416.317,0.0
54173.0,STARLINK-5242,PAYLOAD,2022-12-16 14:00:01,15.49857225,0.0001158,53.2138,259.8902,94.9849,356.9249,0.00045463,0.0002541,0.0,0 STARLINK-5242,1 54173U 22141S   22350.58334491  .00025410  00000-0  45463-3 0  9996,2 54173  53.2138 259.8902 0001158  94.9849 356.9249 15.49857225  7819,6795.28,92.912,417.932,416.358,0.0
54173.0,STARLINK-5242,PAYLOAD,2022-12-16 22:00:00,15.49890978,0.000132,53.2141,258.2979,90.1347,62.6624,-0.00016362,-9.728e-05,0.0,0 STARLINK-5242,1 54173U 22141S   22350.91667824 -.00009728  00000-0 -16362-3 0  9994,2 54173  53.2141 258.2979 0001320  90.1347  62.6624 15.49890978  1300,6795.182,92.91,417.944,416.15,0.0
54173.0,STARLINK-5242,PAYLOAD,2022-12-17 11:16:21,15.49882025,0.0001223,53.2147,255.654,84.7816,275.3334,-6.7161e-05,-4.26e-05,0.0,0 STARLINK-5242,1 54173U 22141S   22351.46969580 -.00004260  00000-0 -67161-4 0  9999,2 54173  53.2147 255.6540 0001223  84.7816 275.3334 15.49882025  7955,6795.208000000001,92.91,417.904,416.242,0.0
54173.0,STARLINK-5242,PAYLOAD,2022-12-18 10:29:14,15.49881167,0.000113,53.2156,251.031,84.2442,275.8697,-1.147e-05,-1.102e-05,0.0,0 STARLINK-5242,1 54173U 22141S   22352.43696950 -.00001102  00000-0 -11470-4 0  9999,2 54173  53.2156 251.0310 0001130  84.2442 275.8697 15.49881167  8108,6795.21,92.91,417.843,416.3080000000001,0.0
54173.0,STARLINK-5242,PAYLOAD,2022-12-18 16:40:49,15.497651199999998,0.0003256,53.2155,249.7989,90.8302,269.3081,-0.00023243,-0.00013568,0.0,0 STARLINK-5242,1 54173U 22141S   22352.69501651 -.00013568  00000-0 -23243-3 0  9999,2 54173  53.2155 249.7989 0003256  90.8302 269.3081 15.49765120  8141,6795.55,92.917,419.627,415.202,0.0
54173.0,STARLINK-5242,PAYLOAD,2022-12-18 21:19:47,15.49471975,9.12e-05,53.2154,248.876,342.6176,17.4803,-0.00090083,-0.0005051,0.0,0 STARLINK-5242,1 54173U 22141S   22352.88874367 -.00050510  00000-0 -90083-3 0  9991,2 54173  53.2154 248.8760 0000912 342.6176  17.4803 15.49471975  8179,6796.406999999997,92.935,418.892,417.652,0.0
54173.0,STARLINK-5242,PAYLOAD,2022-12-19 06:37:54,15.48824756,0.0001484,53.2153,247.0317,82.3393,277.7785,-0.0023452,-0.00126616,0.0,0 STARLINK-5242,1 54173U 22141S   22353.27632774 -.00126616  00000-0 -23452-2 0  9995,2 54173  53.2153 247.0317 0001484  82.3393 277.7785 15.48824756  8236,6798.3,92.974,421.174,419.156,0.0
54173.0,STARLINK-5242,PAYLOAD,2022-12-19 22:00:00,15.4636437,0.0001136,53.2162,243.9741,95.4629,236.4438,-0.02467,-0.01133441,0.0,0 STARLINK-5242,1 54173U 22141S   22353.91667824 -.01133441  00000-0 -24670-1 0  9997,2 54173  53.2162 243.9741 0001136  95.4629 236.4438 15.46364370  8329,6805.509,93.122,428.147,426.601,0.0
